[{"OBJECT_NAME":"JILIN-1 GAOFEN 03D47","OBJECT_ID":"2022-167L","EPOCH":"2026-03-09T22:56:46.924224","MEAN_MOTION":15.31686941,"ECCENTRICITY":0.00089304,"INCLINATION":97.6835,"RA_OF_ASC_NODE":234.6581,"ARG_OF_PERICENTER":110.4031,"MEAN_ANOMALY":249.8169,"EPHEMERIS_TYPE":0,"CLASSIFICATION_TYPE":"U","NORAD_CAT_ID":54692,"ELEMENT_SET_NO":999,"REV_AT_EPOCH":18014,"BSTAR":0.00047294748,"MEAN_MOTION_DOT":0.00014417,"MEAN_MOTION_DDOT":0},{"OBJECT_NAME":"STARLINK-35819","OBJECT_ID":"2025-247W","EPOCH":"2026-03-09T15:01:51.234816","MEAN_MOTION":15.30204109,"ECCENTRICITY":0.0001161,"INCLINATION":53.1577,"RA_OF_ASC_NODE":191.7561,"ARG_OF_PERICENTER":55.208,"MEAN_ANOMALY":304.903,"EPHEMERIS_TYPE":0,"CLASSIFICATION_TYPE":"U","NORAD_CAT_ID":66285,"ELEMENT_SET_NO":999,"REV_AT_EPOCH":2102,"BSTAR":0.0006358,"MEAN_MOTION_DOT":0.00018521,"MEAN_MOTION_DDOT":0}]
